[{"OBJECT_NAME":"GAOFEN-5 02","OBJECT_ID":"2021-079A","EPOCH":"2026-03-09T22:28:30.715104","MEAN_MOTION":14.5772301,"ECCENTRICITY":3.379e-5,"INCLINATION":98.2675,"RA_OF_ASC_NODE":143.9335,"ARG_OF_PERICENTER":339.1436,"MEAN_ANOMALY":20.9749,"EPHEMERIS_TYPE":0,"CLASSIFICATION_TYPE":"U","NORAD_CAT_ID":49122,"ELEMENT_SET_NO":999,"REV_AT_EPOCH":23962,"BSTAR":9.830729e-5,"MEAN_MOTION_DOT":4.03e-6,"MEAN_MOTION_DDOT":0},{"OBJECT_NAME":"CZ-6A DEB","OBJECT_ID":"2024-140ACE","EPOCH":"2026-03-09T03:51:34.531776","MEAN_MOTION":14.55974028,"ECCENTRICITY":0.004461,"INCLINATION":89.4918,"RA_OF_ASC_NODE":318.1456,"ARG_OF_PERICENTER":223.894,"MEAN_ANOMALY":135.8723,"EPHEMERIS_TYPE":0,"CLASSIFICATION_TYPE":"U","NORAD_CAT_ID":61814,"ELEMENT_SET_NO":999,"REV_AT_EPOCH":7779,"BSTAR":0.0023086607,"MEAN_MOTION_DOT":0.00010307,"MEAN_MOTION_DDOT":0}]
